From:	Horizons Ephemeris System <horizons@ssd.jpl.nasa.gov>
Sent:	Wednesday, March 4, 2020 9:53 AM
Subject:	[Horizons] MAJOR BODY #C(usr={0.,-80.,.600^G}@301)_T(301) (1/1)

 Automated mail xmit by MAIL_REQUEST, PID= 23750 Wed Mar  4 07:53:15 2020
++++++++++++++++++++++++++++++++ (part 1 of 1)  +++++++++++++++++++++++++++++++
*******************************************************************************
 Revised: July 31, 2013             Moon / (Earth)                          301
 
 GEOPHYSICAL DATA (updated 2018-Aug-15):
  Vol. mean radius, km  = 1737.53+-0.03    Mass, x10^22 kg       =    7.349
  Radius (gravity), km  = 1738.0           Surface emissivity    =    0.92
  Radius (IAU), km      = 1737.4           GM, km^3/s^2          = 4902.800066
  Density, g/cm^3       =    3.3437        GM 1-sigma, km^3/s^2  =  +-0.0001  
  V(1,0)                =   +0.21          Surface accel., m/s^2 =    1.62
  Earth/Moon mass ratio = 81.3005690769    Farside crust. thick. = ~80 - 90 km
  Mean crustal density  = 2.97+-.07 g/cm^3 Nearside crust. thick.= 58+-8 km 
  Heat flow, Apollo 15  = 3.1+-.6 mW/m^2   Mean angular diameter = 31'05.2"
  Heat flow, Apollo 17  = 2.2+-.5 mW/m^2   Sid. rot. rate, rad/s = 0.0000026617
  Geometric Albedo      = 0.12             Mean solar day        = 29.5306 d
  Obliquity to orbit    = 6.67 deg         Orbit period          = 27.321582 d
  Semi-major axis, a    = 384400 km        Eccentricity          = 0.05490
  Mean motion, rad/s    = 2.6616995x10^-6  Inclination           = 5.145 deg
  Apsidal period        = 3231.50 d        Nodal period          = 6798.38 d
                                 Perihelion  Aphelion    Mean
  Solar Constant (W/m^2)         1414+-7     1323+-7     1368+-7
  Maximum Planetary IR (W/m^2)   1314        1226        1268
  Minimum Planetary IR (W/m^2)      5.2         5.2         5.2
 *******************************************************************************
 
 
*******************************************************************************
Ephemeris / MAIL_REQUEST Wed Mar  4 07:53:14 2020 Pasadena, USA  / Horizons    
*******************************************************************************
Target body name: Moon (301)                      {source: DE431mx}
Center body name: Moon (301)                      {source: DE431mx}
Center-site name: (user defined site below)
*******************************************************************************
Start time      : A.D. 2020-Jan-01 00:00:00.0000 TDB
Stop  time      : A.D. 2039-Jan-01 00:00:00.0000 TDB
Step-size       : 10000 steps
*******************************************************************************
Center geodetic : 0.00000000,-80.000000,0.6000000 {E-lon(deg),Lat(deg),Alt(km)}
Center cylindric: 0.00000000,301.800533,-1711.596 {E-lon(deg),Dxy(km),Dz(km)}
Center pole/equ : IAU_MOON                        {East-longitude positive}
Center radii    : 1737.4 x 1737.4 x 1737.4 km     {Equator, meridian, pole}    
Output units    : KM-S                                                         
Output type     : GEOMETRIC cartesian states
Output format   : 3 (position, velocity, LT, range, range-rate)
Reference frame : ICRF/J2000.0                                                 
Coordinate systm: Ecliptic and Mean Equinox of Reference Epoch                 
*******************************************************************************
JDTDB
   X     Y     Z
   VX    VY    VZ
   LT    RG    RR
*******************************************************************************
$$SOE
2465058.718000000 = A.D. 2036-Dec-31 05:13:55.2000 TDB 
   1.751045571041583E+01  2.678377656459669E+02  1.717148891399517E+03
  -7.894708287469390E-04  1.429078567936940E-04 -1.423995740725152E-05
   5.797343974543886E-03  1.738000000000001E+03 -1.796606591920743E-20
2465059.412000000 = A.D. 2036-Dec-31 21:53:16.8000 TDB 
  -3.030687237937314E+01  2.726040041039399E+02  1.716220425945654E+03
  -8.020800081031409E-04  1.572987894463031E-05 -1.666252422805652E-05
   5.797343974543885E-03  1.738000000000000E+03  7.984918186314416E-21
2465060.106000000 = A.D. 2037-Jan-01 14:32:38.4000 TDB 
  -7.827037952541471E+01  2.697159355435030E+02  1.715159194303212E+03
  -7.943350567801064E-04 -1.118583148798759E-04 -1.865887226367731E-05
   5.797343974543885E-03  1.738000000000000E+03  0.000000000000000E+00
2465060.800000000 = A.D. 2037-Jan-02 07:12:00.0000 TDB 
  -1.251626810395684E+02  2.592461243833551E+02  1.713992342534586E+03
  -7.664246035265442E-04 -2.366206341005972E-04 -2.017790569660075E-05
   5.797343974543886E-03  1.738000000000000E+03  1.596983637262883E-20
2465061.494000000 = A.D. 2037-Jan-02 23:51:21.6000 TDB 
  -1.697930670949014E+02  2.414595158406111E+02  1.712749723858254E+03
  -7.190480266869706E-04 -3.553898985856628E-04 -2.118061762745990E-05
   5.797343974543886E-03  1.738000000000001E+03  7.984918186314414E-21
2465062.188000000 = A.D. 2037-Jan-03 16:30:43.2000 TDB 
  -2.110276903585417E+02  2.168068906834288E+02  1.711463141891792E+03
  -6.533987371675766E-04 -4.651479246022181E-04 -2.164110359155279E-05
   5.797343974543886E-03  1.738000000000001E+03 -6.787180458367251E-20
2465062.882000000 = A.D. 2037-Jan-04 09:10:04.8000 TDB 
  -2.478183745376308E+02  1.859136111304218E+02  1.710165542407510E+03
  -5.711349745851141E-04 -5.631021714124500E-04 -2.154726078080631E-05
   5.797343974543885E-03  1.738000000000000E+03  1.197737727947162E-20
2465063.576000000 = A.D. 2037-Jan-05 01:49:26.4000 TDB 
  -2.792293122945770E+02  1.495639227909424E+02  1.708890173227901E+03
  -4.743387418654502E-04 -6.467570042819364E-04 -2.090114776970883E-05
   5.797343974543886E-03  1.738000000000000E+03  7.984918186314415E-20
2465064.270000000 = A.D. 2037-Jan-05 18:28:48.0000 TDB 
  -3.044609677784922E+02  1.086811913574633E+02  1.707669733216733E+03
  -3.654638124466042E-04 -7.139777303754759E-04 -1.971898607242700E-05
   5.797343974543885E-03  1.738000000000001E+03  1.038039364220874E-19
2465064.964000000 = A.D. 2037-Jan-06 11:08:09.6000 TDB 
  -3.228705639949342E+02  6.430455900265804E+01  1.706535532181229E+03
  -2.472740399998919E-04 -7.630457158266147E-04 -1.803079392179060E-05
   5.797343974543885E-03  1.738000000000001E+03  1.796606591920743E-20
2465065.658000000 = A.D. 2037-Jan-07 03:47:31.2000 TDB 
  -3.339886172979093E+02  1.756260106502862E+01  1.705516683752834E+03
  -1.227734733465432E-04 -7.927030942216748E-04 -1.587965374659999E-05
   5.797343974543886E-03  1.738000000000000E+03  9.182655914261577E-20
2465066.352000000 = A.D. 2037-Jan-07 20:26:52.8000 TDB 
  -3.375310787758190E+02 -3.035535431415599E+01  1.704639352861741E+03
   4.869980781108715E-06 -8.021858258194295E-04 -1.332062706622207E-05
   5.797343974543886E-03  1.738000000000000E+03  4.990573866446509E-20
2465067.046000000 = A.D. 2037-Jan-08 13:06:14.4000 TDB 
  -3.334067529623595E+02 -7.822951506718505E+01  1.703926078223892E+03
   1.324054063263272E-04 -7.912441578354199E-04 -1.041934294930888E-05
   5.797343974543885E-03  1.738000000000001E+03 -6.387934549051531E-20
2465067.740000000 = A.D. 2037-Jan-09 05:45:36.0000 TDB 
  -3.217197853918188E+02 -1.248407467395182E+02  1.703395188334452E+03
   2.565821488331965E-04 -7.601498619479367E-04 -7.250297891007909E-06
   5.797343974543885E-03  1.738000000000000E+03  6.188311594393672E-20
2465068.434000000 = A.D. 2037-Jan-09 22:24:57.6000 TDB 
  -3.027671388225228E+02 -1.690017238616557E+02  1.703060326876595E+03
   3.742333279813574E-04 -7.096899768564550E-04 -3.894915186767678E-06
   5.797343974543886E-03  1.738000000000000E+03 -4.890762389117579E-20
2465069.128000000 = A.D. 2037-Jan-10 15:04:19.2000 TDB 
  -2.770311099331124E+02 -2.095873029691669E+02  1.702930100316317E+03
   4.823573808990253E-04 -6.411471508070242E-04 -4.394199908645151E-07
   5.797343974543885E-03  1.738000000000001E+03 -2.370522586562091E-20
2465069.822000000 = A.D. 2037-Jan-11 07:43:40.8000 TDB 
  -2.451670701546707E+02 -2.455633259031273E+02  1.703007856905884E+03
   5.781954598636425E-04 -5.562670498269014E-04  3.027408244054891E-06
   5.797343974543884E-03  1.738000000000000E+03 -4.990573866446509E-21
2465070.516000000 = A.D. 2037-Jan-12 00:23:02.4000 TDB 
  -2.079867421352720E+02 -2.760131008842570E+02  1.703291602526184E+03
   6.593026077624902E-04 -4.572136596340948E-04  6.416541648743111E-06
   5.797343974543886E-03  1.738000000000001E+03  1.097926250618232E-20
2465071.210000000 = A.D. 2037-Jan-12 17:02:24.0000 TDB 
  -1.664374432660231E+02 -3.001608688636350E+02  1.703774054938653E+03
   7.236107979316015E-04 -3.465136503060208E-04  9.641004175902325E-06
   5.797343974543885E-03  1.738000000000000E+03 -2.794721365210045E-20
2465071.904000000 = A.D. 2037-Jan-13 09:41:45.6000 TDB 
  -1.215778360427573E+02 -3.173916421827350E+02  1.704442834258665E+03
   7.694821472134590E-04 -2.269912808274547E-04  1.261810517576714E-05
   5.797343974543885E-03  1.738000000000000E+03 -2.994344319867906E-20
2465072.598000000 = A.D. 2037-Jan-14 02:21:07.2000 TDB 
  -7.455081846365306E+01 -3.272668993084510E+02  1.705280783942467E+03
   7.957508851576408E-04 -1.016955848095083E-04  1.527155018278196E-05
   5.797343974543884E-03  1.738000000000000E+03  1.397360682605022E-20
2465073.292000000 = A.D. 2037-Jan-14 19:00:28.8000 TDB 
  -2.655426332699151E+01 -3.295357304378241E+02  1.706266413390351E+03
   8.017529788517920E-04  2.617821005271960E-05  1.753337876203269E-05
   5.797343974543886E-03  1.738000000000000E+03 -3.992459093157208E-21
2465073.986000000 = A.D. 2037-Jan-15 11:39:50.4000 TDB 
   2.118962901965249E+01 -3.241411507022641E+02  1.707374450448238E+03
   7.873426607385098E-04  1.533709246120403E-04  1.934568546867404E-05
   5.797343974543884E-03  1.738000000000000E+03 -7.984918186314416E-21
